QIANFAN-5               
1 60383U 24140E   24243.17304624  .00000934  00000+0  37975-3 0  9992
2 60383  88.9972 348.4348 0017004 138.7699 221.4782 14.26705603  3412
QIANFAN-6               
1 60384U 24140F   24243.17299864  .00000764  00000+0  30958-3 0  9997
2 60384  88.9972 348.4348 0017009 138.8165 221.4316 14.26706601  3419
QIANFAN-7               
1 60385U 24140G   24243.17288336  .00002103  00000+0  86233-3 0  9996
2 60385  88.9972 348.4346 0017105 139.1655 221.0823 14.26726360  3416
QIANFAN-8               
1 60386U 24140H   24243.17292932  .00000013  00000+0 -71241-6 0  9999
2 60386  88.9973 348.4348 0016985 138.9676 221.2799 14.26711123  3410
QIANFAN-9               
1 60387U 24140J   24243.17291283  .00001220  00000+0  49775-3 0  9992
2 60387  88.9972 348.4349 0016972 138.6855 221.5626 14.26713281  3399
QIANFAN-10              
1 60388U 24140K   24243.17557780  .00000889  00000+0  36633-3 0  9999
2 60388  88.9974 348.4353 0017174 138.8664 221.3828 14.25963750  3414
QIANFAN-11              
1 60389U 24140L   24243.17284551  .00001410  00000+0  57609-3 0  9990
2 60389  88.9972 348.4347 0016952 138.9427 221.3046 14.26717370  3392
QIANFAN-12              
1 60390U 24140M   24243.17255149  .00001127  00000+0  45936-3 0  9998
2 60390  88.9972 348.4346 0016885 138.5944 221.6533 14.26734887  3394
QIANFAN-13              
1 60391U 24140N   24243.17254066  .00001760  00000+0  72076-3 0  9994
2 60391  88.9972 348.4348 0016850 138.7391 221.5079 14.26737230  3396
QIANFAN-14              
1 60392U 24140P   24243.17239577  .00001439  00000+0  58783-3 0  9997
2 60392  88.9972 348.4347 0016838 138.8483 221.3984 14.26745470  3393
QIANFAN-15              
1 60393U 24140Q   24243.17235736  .00001067  00000+0  43422-3 0  9992
2 60393  88.9972 348.4347 0016816 138.9269 221.3195 14.26746666  3395
QIANFAN-16              
1 60394U 24140R   24243.17228498  .00001729  00000+0  70755-3 0  9994
2 60394  88.9972 348.4347 0016793 138.8925 221.3537 14.26751897  3390
QIANFAN-17              
1 60395U 24140S   24243.17532580  .00001677  00000+0  69816-3 0  9993
2 60395  88.9972 348.4352 0017060 139.0806 221.1672 14.25847368  3392
QIANFAN-18              
1 60396U 24140T   24243.17214024  .00001726  00000+0  70617-3 0  9990
2 60396  88.9972 348.4348 0016761 138.9949 221.2508 14.26763788  3394
CZ-6A R/B               
1 60397U 24140U   24242.58193204  .00000437  00000+0  19869-3 0  9991
2 60397  89.0221 348.6166 0041985 159.4656 200.8234 14.19624216  3026
STARLINK-11228 [DTC]    
1 60398U 24141A   24243.15369941  .00033791  00000+0  20948-3 0  9999
2 60398  53.1574 310.4396 0001156  83.2885 276.8268 15.76745620  4271
STARLINK-11182 [DTC]    
1 60399U 24141B   24243.14881605  .00009835  00000+0  64032-4 0  9990
2 60399  53.1572 310.4055 0001454  78.4390 281.6795 15.76724339  4329
STARLINK-11234 [DTC]    
1 60400U 24141C   24243.14393571  .00064541  00000+0  39456-3 0  9999
2 60400  53.1560 310.3753 0001675  62.0549 298.0642 15.76773168  4274
STARLINK-11232 [DTC]    
1 60401U 24141D   24242.82211583  .00011225  00000+0  72530-4 0  9998
2 60401  53.1580 311.9189 0002409 164.1914 195.9182 15.76716661  4249
STARLINK-11139 [DTC]    
1 60402U 24141E   24242.69045847 -.00005915  00000+0 -32213-4 0  9997
2 60402  53.1578 312.5163 0001138 107.3546 252.7600 15.76699000  4259
STARLINK-11158 [DTC]    
1 60403U 24141F   24242.91667824 -.01152077  00000+0 -87031-2 0  9997
2 60403  53.1591 311.3418 0000893  63.4992 165.5018 15.74519241  4259
STARLINK-11199 [DTC]    
1 60404U 24141G   24243.16667824 -.01097086  00000+0 -84714-2 0  9999
2 60404  53.1593 310.0430 0000918  79.8261 154.5101 15.73883534  4327
STARLINK-11081 [DTC]    
1 60405U 24141H   24243.16667824 -.01097621  00000+0 -84758-2 0  9993
2 60405  53.1592 309.9860 0000928  76.8982 185.1741 15.73883998  4288
STARLINK-11150 [DTC]    
1 60406U 24141J   24242.91667824 -.01142552  00000+0 -86248-2 0  9996
2 60406  53.1578 311.1695 0000765  70.3327 241.8782 15.74514098  4306
STARLINK-11136 [DTC]    
1 60407U 24141K   24243.16667824 -.01097043  00000+0 -84711-2 0  9992
2 60407  53.1545 309.8699 0000917  77.8905 239.6548 15.73883233  4283
STARLINK-11196 [DTC]    
1 60408U 24141L   24243.16667824 -.01095746  00000+0 -84603-2 0  9991
2 60408  53.1554 309.8135 0000894  80.4221 264.8598 15.73882442  4325
STARLINK-11174 [DTC]    
1 60409U 24141M   24243.16667824 -.01189428  00000+0 -82185-2 0  9996
2 60409  53.1543 309.7441 0000889 121.9052 257.0021 15.76624581  4270
STARLINK-11191 [DTC]    
1 60410U 24141N   24243.16667824 -.01103184  00000+0 -75733-2 0  9994
2 60410  53.1526 309.6868 0001214  77.3765 329.2915 15.76563515  4322
STARLINK-32244          
1 60411U 24141P   24242.91667824 -.00660693  00000+0 -46701-2 0  9992
2 60411  53.1521 311.0876 0000899  63.7767 287.0201 15.75153085  4317
STARLINK-32186          
1 60412U 24141Q   24242.91667824 -.00669498  00000+0 -47636-2 0  9993
2 60412  53.1521 311.0829 0000905  63.6981 289.4971 15.75026949  4252
STARLINK-32178          
1 60413U 24141R   24242.91667824 -.00693312  00000+0 -50175-2 0  9998
2 60413  53.1524 311.0685 0000994  65.5897 294.3470 15.74703666  4257
STARLINK-32234          
1 60414U 24141S   24242.91667824 -.00674763  00000+0 -48187-2 0  9998
2 60414  53.1522 311.0779 0000919  63.7394 291.6156 15.74957531  4319
STARLINK-32265          
1 60415U 24141T   24242.91667824 -.00686348  00000+0 -49421-2 0  9993
2 60415  53.1524 311.0737 0000979  63.8726 293.8874 15.74800077  4315
STARLINK-32197          
1 60416U 24141U   24242.91667824 -.00695080  00000+0 -50372-2 0  9994
2 60416  53.1522 311.0641 0000920  63.7833 298.1353 15.74677641  4254
STARLINK-32255          
1 60417U 24141V   24242.91667824 -.00703308  00000+0 -51289-2 0  9996
2 60417  53.1524 311.0597 0000854  62.5021 301.6074 15.74557102  4315
STARLINK-32236          
1 60418U 24141W   24243.16667824 -.00437019  00000+0 -31548-2 0  9994
2 60418  53.1526 309.8137 0000888  87.8266 256.0026 15.74058680  4330
CAPELLA-13 (ACADIA-3)   
1 60419U 24142A   24243.15026577  .00017507  00000+0  20145-2 0  9994
2 60419  53.0092  40.6848 0010590 343.4100  16.6531 14.85794336  2768
ELECTRON KICK STAGE R/B 
1 60420U 24142B   24243.15060532  .00007803  00000+0  91842-3 0  9996
2 60420  53.0060  40.6830 0012388 326.6305  33.3892 14.85579216  2734
ASBM A                  
1 60422U 24143A   24226.47652309  .00001141  00000+0  33572-3 0  9999
2 60422  62.3271  72.7173 4781748 267.8387  38.9297  5.93604593   107
ASBM B                  
1 60423U 24143B   24226.13933057  .00001178  00000+0  34422-3 0  9990
2 60423  62.3236  72.9413 4780777 267.8157  38.9560  5.93764773    69
FALCON 9 R/B            
1 60424U 24143C   24238.46469878  .00005109  00000+0  78829-3 0  9992
2 60424  62.3414  64.5420 4775777 267.8467  38.9853  5.99947401   793
STARLINK-32250          
1 60425U 24144A   24243.16667824 -.00560634  00000+0 -26540-2 0  9991
2 60425  53.1496 287.3137 0000799  82.7213 175.0161 15.83657025  4069
STARLINK-32226          
1 60426U 24144B   24243.16667824 -.00561859  00000+0 -26589-2 0  9995
2 60426  53.1500 287.3101 0000818  81.5561 178.1288 15.83666982  3865
STARLINK-32254          
1 60427U 24144C   24243.16667824 -.00575923  00000+0 -27328-2 0  9995
2 60427  53.1492 287.2842 0000777  80.4440 191.3328 15.83644835  4063
STARLINK-32193          
1 60428U 24144D   24243.16667824 -.00564396  00000+0 -26715-2 0  9997
2 60428  53.1496 287.3046 0000765  84.2555 177.8991 15.83668765  4064
STARLINK-32242          
1 60429U 24144E   24243.16667824 -.00572640  00000+0 -27148-2 0  9990
2 60429  53.1495 287.2914 0000921  75.9295 192.5713 15.83654732  4064
STARLINK-32196          
1 60430U 24144F   24243.16667824 -.00582016  00000+0 -27666-2 0  9995
2 60430  53.1494 287.2759 0000823  78.2143 197.7079 15.83622243  3974
STARLINK-32232          
1 60431U 24144G   24243.16667824 -.00568058  00000+0 -26909-2 0  9995
2 60431  53.1496 287.2980 0000781  81.4467 183.8941 15.83661424  3979
STARLINK-32246          
1 60432U 24144H   24243.16667824 -.00586339  00000+0 -27906-2 0  9996
2 60432  53.1495 287.2688 0000729  83.5617 195.9091 15.83607362  3977
STARLINK-32183          
1 60433U 24144J   24243.16667824 -.00588303  00000+0 -27992-2 0  9995
2 60433  53.1493 287.2645 0000826  88.3786 193.0536 15.83617109  3970
STARLINK-32233          
1 60434U 24144K   24243.16667824 -.00596110  00000+0 -28421-2 0  9999
2 60434  53.1493 287.2511 0000706  83.4506 204.5375 15.83594234  3978
STARLINK-32222          
1 60435U 24144L   24243.16667824 -.00592394  00000+0 -28222-2 0  9999
2 60435  53.1495 287.2575 0000774  80.6313 204.3703 15.83601051  3970
STARLINK-32229          
1 60436U 24144M   24243.16667824 -.00599895  00000+0 -28629-2 0  9994
2 60436  53.1489 287.2440 0000713  82.8426 208.3525 15.83583191  3977
STARLINK-32241          
1 60437U 24144N   24243.16667824 -.00605704  00000+0 -28959-2 0  9998
2 60437  53.1491 287.2362 0000747  77.6360 217.5585 15.83558802  3979
STARLINK-32240          
1 60438U 24144P   24243.16667824 -.00609253  00000+0 -29154-2 0  9990
2 60438  53.1490 287.2299 0000725  80.5094 217.7414 15.83549293  4069
STARLINK-32231          
1 60439U 24144Q   24243.16667824 -.00618287  00000+0 -29654-2 0  9993
2 60439  53.1490 287.2164 0000819  76.9119 227.8604 15.83522655  4068
STARLINK-32195          
1 60440U 24144R   24243.16667824 -.00613761  00000+0 -29408-2 0  9994
2 60440  53.1491 287.2230 0000714  78.5287 223.1580 15.83532986  3972
STARLINK-32177          
1 60441U 24144S   24243.16667824 -.00620092  00000+0 -29756-2 0  9996
2 60441  53.1491 287.2110 0000705  73.2780 234.2537 15.83516860  3978
STARLINK-32252          
1 60442U 24144T   24243.16667824 -.00633341  00000+0 -30506-2 0  9993
2 60442  53.1485 287.1898 0000685  76.7119 240.6739 15.83470389  4066
